BANGABANDHUSAT-1        
1 43463U 18044A   24108.90403490 -.00000369  00000+0  00000+0 0  9998
2 43463   0.0169 238.6392 0002225 140.0161 272.3915  1.00273835 21804
SES-12                  
1 43488U 18049A   24109.45969594 -.00000275  00000+0  00000+0 0  9999
2 43488   0.0294  57.4297 0001748 255.2880 154.8252  1.00271543 21494
FENGYUN 2H              
1 43491U 18050A   24109.12042691 -.00000134  00000+0  00000+0 0  9993
2 43491   0.9879  87.6117 0000915   9.4368 232.2205  1.00275056 21589
BEIDOU-2 IGSO-7         
1 43539U 18057A   24109.58046113 -.00000118  00000+0  00000+0 0  9998
2 43539  55.1337 169.8887 0073819 232.7837 126.5629  1.00271506 21216
TELSTAR 19V             
1 43562U 18059A   24109.27341056 -.00000286  00000+0  00000+0 0  9992
2 43562   0.0196 181.1331 0001499 262.7848 158.3732  1.00271143 21243
TELKOM 4 (MERAH PUTIH)  
1 43587U 18064A   24108.90142124 -.00000351  00000+0  00000+0 0  9992
2 43587   0.0158 250.8934 0001332 154.3086 233.8112  1.00272209 20948
TELSTAR 18V             
1 43611U 18069A   24108.91740324 -.00000301  00000+0  00000+0 0  9997
2 43611   0.0156 208.5109 0001866 180.0771 286.2011  1.00268905 20709
AZERSPACE 2 (IS-38)     
1 43632U 18074A   24108.89886742  .00000129  00000+0  00000+0 0  9995
2 43632   0.0159 183.9421 0001345 202.8348 188.4281  1.00272844 20522
HORIZONS-3E             
1 43633U 18074B   24108.80396535 -.00000038  00000+0  00000+0 0  9993
2 43633   0.0160 208.7286 0001147 113.0035 343.0867  1.00269667 20412
AEHF-4 (USA 288)        
1 43651U 18079A   24108.87650263 -.00000284  00000+0  00000+0 0  9999
2 43651   1.7536 329.9878 0003506  37.7036  86.7444  1.00268411 20377
BEIDOU-3 G1             
1 43683U 18085A   24108.91775133 -.00000283  00000+0  00000+0 0  9999
2 43683   2.0445 111.9764 0003614 341.4258 223.5880  1.00272828 20135
GSAT-29                 
1 43698U 18089A   24106.53845354  .00000075  00000+0  00000+0 0  9996
2 43698   0.0190 247.6451 0000362  97.3465 108.0124  1.00271168 19839
ES'HAIL 2               
1 43700U 18090A   24108.89503844  .00000137  00000+0  00000+0 0  9997
2 43700   0.0157 247.0647 0001348 170.1236 137.3539  1.00275203 19758
GEO-KOMPSAT-2A          
1 43823U 18100A   24108.98649917 -.00000350  00000+0  00000+0 0  9995
2 43823   0.0286  61.1365 0001940   2.4937 266.3560  1.00272356 19733
GSAT-11                 
1 43824U 18100B   24107.71646549 -.00000087  00000+0  00000+0 0  9991
2 43824   0.0363  72.0398 0007042 348.4396 116.7713  1.00271961 19546
GSAT-7A                 
1 43864U 18105A   24109.47512654  .00000021  00000+0  00000+0 0  9991
2 43864   0.0590  91.3154 0002337 290.5894  58.9924  1.00270451 19531
COSMOS 2533             
1 43867U 18107A   24109.11859942 -.00000046  00000+0  00000+0 0  9999
2 43867   0.0380  57.9987 0000881  25.4488 235.9652  1.00275872 19491
TJS-3                   
1 43874U 18110A   24109.70879736 -.00000003  00000+0  00000+0 0  9992
2 43874   0.5005  88.8867 0000748 238.6482 307.8857  1.00269805 19565
CHINASAT 2D (ZX 2D)     
1 43920U 19001A   24109.51186984 -.00000342  00000+0  00000+0 0  9995
2 43920   0.0187 260.9135 0001468 352.0040 268.4764  1.00272043 19438
HELLAS-SAT 4 & SGS-1    
1 44034U 19007A   24109.11224677  .00000146  00000+0  00000+0 0  9997
2 44034   0.0704 122.7071 0003859  18.1303 145.3180  1.00272971 19426
GSAT-31                 
1 44035U 19007B   24107.10974286  .00000115  00000+0  00000+0 0  9999
2 44035   0.0503  75.3634 0003450 243.4359 333.3325  1.00272608 19026
NUSANTARA SATU          
1 44048U 19009A   24106.38174400 -.00000245  00000+0  00000+0 0  9999
2 44048   0.0339 131.2255 0002556 320.8296  35.3976  1.00271874 18826
CHINASAT 6C (ZX 6C)     
1 44067U 19012A   24108.91583683 -.00000342  00000+0  00000+0 0  9990
2 44067   0.1096  92.5926 0001011 280.3819 293.6884  1.00273725 18811
WGS 10 (USA 291)        
1 44071U 19014A   24109.47460440  .00000042  00000+0  00000+0 0  9990
2 44071   0.0145 208.7376 0000352 165.0449  64.4587  1.00270913 18691
TIANLIAN 2-01           
1 44076U 19017A   24109.11999178 -.00000113  00000+0  00000+0 0  9994
2 44076   0.0700 260.7836 0003954 111.8634 314.3022  1.00271787 18688
ARABSAT-6A              
1 44186U 19021A   24106.17557885  .00000143  00000+0  00000+0 0  9991
2 44186   0.0489   8.3314 0001847 353.1216 296.0025  1.00269252 18208
BEIDOU-3 IGSO-1         
1 44204U 19023A   24109.48209839 -.00000220  00000+0  00000+0 0  9991
2 44204  57.5595  45.8478 0019369 215.3527 238.5701  1.00267613 18440
BEIDOU-2 G8             
1 44231U 19027A   24108.91870858 -.00000253  00000+0  00000+0 0  9993
2 44231   1.8006  73.4770 0002844 179.4363  68.8634  1.00274394 18150
YAMAL 601               
1 44307U 19031A   24108.09007616  .00000111  00000+0  00000+0 0  9997
2 44307   0.0143 175.7323 0002292 204.3004 267.0887  1.00272064 17989
AT&T T-16               
1 44333U 19034A   24108.65510927 -.00000122  00000+0  00000+0 0  9998
2 44333   0.0166 214.7706 0000963  20.5970 105.8629  1.00266563 17705
EUTELSAT 7C             
1 44334U 19034B   24108.74811080  .00000041  00000+0  00000+0 0  9992
2 44334   0.0707 192.1340 0003260 176.6798 113.8555  1.00273248 18171
BEIDOU-3 IGSO-2         
1 44337U 19035A   24109.05672638 -.00000120  00000+0  00000+0 0  9994
2 44337  55.1679 165.7952 0032847 207.8658 332.0756  1.00260173 17779
COSMOS 2539             
1 44457U 19048A   24108.74915507  .00000074  00000+0  00000+0 0  9998
2 44457   0.0326  99.6994 0000210 155.8138 232.5339  1.00275160 17307
EDRS-C                  
1 44475U 19049A   24107.34396552  .00000144  00000+0  00000+0 0  9995
2 44475   0.0590 250.0250 0000858 152.9887 316.9819  1.00274325 17262
INTELSAT 39 (IS-39)     
1 44476U 19049B   24109.04541344  .00000028  00000+0  00000+0 0  9997
2 44476   0.0176 218.1071 0000574 305.0332 121.8024  1.00267960 17202
AMOS-17                 
1 44479U 19050A   24107.17509681  .00000099  00000+0  00000+0 0  9990
2 44479   0.0303  85.6849 0001476 311.4746 247.6632  1.00270936 17231
AEHF-5 (USA 292)        
1 44481U 19051A   24109.18717321  .00000074  00000+0  00000+0 0  9992
2 44481   2.8394 307.0717 0048196   3.9706  17.6168  1.00273807 17338
EUTELSAT 5 WEST B       
1 44624U 19067A   24108.81738078 -.00000049  00000+0  00000+0 0  9992
2 44624   0.0768  36.0894 0002881 350.9855 108.5984  1.00272561 16520
MEV-1                   
1 44625U 19067B   24108.66972906 -.00000209  00000+0  00000+0 0  9994
2 44625   0.0401  73.0914 0000909 331.9521  14.8413  1.00272373 15051
TJS-4                   
1 44637U 19070A   24109.12129713 -.00000176  00000+0  00000+0 0  9996
2 44637   0.0087  22.8224 0003938  35.0969 275.9716  1.00270914 16600
BEIDOU-3 IGSO-3         
1 44709U 19073A   24107.90091386 -.00000164  00000+0  00000+0 0  9994
2 44709  56.1547 289.3690 0036788 179.6305 180.3286  1.00268211 16527
TIBA-1                  
1 44800U 19080A   24109.07688222  .00000149  00000+0  00000+0 0  9997
2 44800   0.0592 359.7171 0001950  20.2916 249.8675  1.00269142 16151
INMARSAT GX5            
1 44801U 19080B   24109.17847095  .00000069  00000+0  00000+0 0  9995
2 44801   0.0551  47.5323 0001843 338.3212 256.1607  1.00272458 16162
JCSAT-18 (KACIFIC 1)    
1 44868U 19091A   24108.77656719 -.00000208  00000+0  00000+0 0  9992
2 44868   0.0303   2.4975 0000351 263.0689  10.3584  1.00271180 16163
ELEKTRO-L 3             
1 44903U 19095A   24109.11981774 -.00000103  00000+0  00000+0 0  9991
2 44903   0.0426 341.7202 0001046  45.2398 298.8628  1.00273029 15761
SHIJIAN-20 (SJ-20)      
1 44910U 19097A   24109.69099368 -.00000022  00000+0  00000+0 0  9993
2 44910   2.8883  84.5525 0003886 338.4562 101.0755  1.00271598 15776
TJS-5                   
1 44978U 20002A   24109.46901201 -.00000347  00000+0  00000+0 0  9998
2 44978   0.4353  84.4821 0003884 187.9815 210.9417  1.00268606 15771
GSAT-30                 
1 45026U 20005A   24107.61789832 -.00000175  00000+0  00000+0 0  9994
2 45026   0.0756  87.9690 0002356 351.2078  71.5122  1.00272595 15575
EUTELSAT KONNECT        
1 45027U 20005B   24108.91646701  .00000043  00000+0  00000+0 0  9999
2 45027   0.0625  85.0417 0000500 198.8400 259.7690  1.00273236 16406
JCSAT-17                
1 45245U 20013A   24108.91696812 -.00000328  00000+0  00000+0 0  9995
2 45245   5.6266 349.4587 0003461  16.3317 306.8071  1.00273500 15304
GEO-KOMPSAT-2B          
1 45246U 20013B   24107.69697885 -.00000353  00000+0  00000+0 0  9999
2 45246   0.0397  38.7452 0001202 293.6380 252.1437  1.00271501 15318
BEIDOU-3 G2             
1 45344U 20017A   24109.12060095 -.00000146  00000+0  00000+0 0  9999
2 45344   2.2469  27.1859 0001164 329.6843 333.3054  1.00271474 15344
AEHF-6 (USA 298)        
1 45465U 20022B   24108.98893580 -.00000311  00000+0  00000+0 0  9999
2 45465   4.3678 298.7589 0045292   8.4246  33.1574  1.00275162 15067
BEIDOU-3 G3             
1 45807U 20040A   24108.91192082 -.00000361  00000+0  00000+0 0  9996
2 45807   0.6860  33.4954 0005839 300.7634 311.0784  1.00276182 14143
APSTAR-6D               
1 45863U 20045A   24108.91653302 -.00000325  00000+0  00000+0 0  9990
2 45863   0.0534  76.9106 0002852 335.4566 258.0840  1.00268128 13939
KOREASAT 116            
1 45920U 20048A   24109.05620425 -.00000368  00000+0  00000+0 0  9990
2 45920   0.0218 274.5872 0000676 137.1344 291.3514  1.00269132 13700
EXPRESS 103             
1 45985U 20053A   24108.05003497 -.00000290  00000+0  00000+0 0  9994
2 45985   0.0140 256.4936 0000763  60.9966   2.6792  1.00272971 13701
EXPRESS 80              
1 45986U 20053B   24108.20600712 -.00000145  00000+0  00000+0 0  9994
2 45986   0.0252 262.6311 0001531 298.5155 158.8368  1.00271646 13706
BSAT-4B                 
1 46112U 20056A   24107.89208557 -.00000359  00000+0  00000+0 0  9991
2 46112   0.0952 106.3544 0002616 341.3204 188.8167  1.00273092 13464
